NORAD_CAT_ID,OBJECT_NAME,OBJECT_TYPE,EPOCH,MEAN_MOTION,ECCENTRICITY,INCLINATION,RA_OF_ASC_NODE,ARG_OF_PERICENTER,MEAN_ANOMALY,BSTAR,MEAN_MOTION_DOT,MEAN_MOTION_DDOT,TLE_LINE0,TLE_LINE1,TLE_LINE2,SEMIMAJOR_AXIS,PERIOD,APOGEE,PERIGEE,DECAYED
53182.0,STARLINK-4278,PAYLOAD,2023-11-20 15:55:37,15.08833851,0.0002008,53.2184,310.1345,84.0269,276.0951,1.3674e-05,-7.1e-07,0.0,0 STARLINK-4278,1 53182U 22083BC  23324.66362478 -.00000071  00000-0  13674-4 0  9994,2 53182  53.2184 310.1345 0002008  84.0269 276.0951 15.08833851 75521,6917.899,95.438,541.153,538.375,0.0
53182.0,STARLINK-4278,PAYLOAD,2023-11-21 07:49:28,15.08841822,0.0001624,53.219,307.1613,88.1542,271.9636,1.7e-05,-1.7e-07,0.0,0 STARLINK-4278,1 53182U 22083BC  23325.32601924 -.00000017  00000-0  17000-4 0  9997,2 53182  53.2190 307.1613 0001624  88.1542 271.9636 15.08841822 75626,6917.875,95.437,540.863,538.616,0.0
53182.0,STARLINK-4278,PAYLOAD,2023-11-22 07:40:14,15.08849394,0.0001659,53.2179,302.7014,86.8328,273.2854,0.00015388,2.162e-05,0.0,0 STARLINK-4278,1 53182U 22083BC  23326.31961354  .00002162  00000-0  15388-3 0  9991,2 53182  53.2179 302.7014 0001659  86.8328 273.2854 15.08849394 75139,6917.852,95.437,540.864,538.569,0.0
53182.0,STARLINK-4278,PAYLOAD,2023-11-23 02:44:52,15.08843079,0.0001853,53.2181,299.1314,75.2194,284.9004,0.0001727,2.462e-05,0.0,0 STARLINK-4278,1 53182U 22083BC  23327.11449756  .00002462  00000-0  17270-3 0  9992,2 53182  53.2181 299.1314 0001853  75.2194 284.9004 15.08843079 75896,6917.871,95.437,541.018,538.454,0.0
53182.0,STARLINK-4278,PAYLOAD,2023-11-23 05:55:38,15.08848735,0.0001892,53.2184,298.5366,74.9502,285.1699,0.00025481,3.77e-05,0.0,0 STARLINK-4278,1 53182U 22083BC  23327.24697380  .00003770  00000-0  25481-3 0  9990,2 53182  53.2184 298.5366 0001892  74.9502 285.1699 15.08848735 75270,6917.854,95.437,541.028,538.41,0.0
53182.0,STARLINK-4278,PAYLOAD,2023-11-23 21:49:30,15.08832663,0.0001825,53.2189,295.563,87.7519,272.3682,-0.00013546,-2.443e-05,0.0,0 STARLINK-4278,1 53182U 22083BC  23327.90938415 -.00002443  00000-0 -13546-3 0  9997,2 53182  53.2189 295.5630 0001825  87.7519 272.3682 15.08832663 75376,6917.903,95.438,541.03,538.505,0.0
53182.0,STARLINK-4278,PAYLOAD,2023-11-24 02:35:40,15.08830812,0.0001637,53.2176,294.6724,80.5691,279.5487,-0.00013696,-2.467e-05,0.0,0 STARLINK-4278,1 53182U 22083BC  23328.10810581 -.00002467  00000-0 -13696-3 0  9995,2 53182  53.2176 294.6724 0001637  80.5691 279.5487 15.08830812 76040,6917.908,95.438,540.906,538.641,0.0
53182.0,STARLINK-4278,PAYLOAD,2023-11-24 07:21:49,15.08834965,0.0001639,53.2167,293.7774,103.6468,256.4707,-9.0553e-05,-1.729e-05,0.0,0 STARLINK-4278,1 53182U 22083BC  23328.30682253 -.00001729  00000-0 -90553-4 0  9998,2 53182  53.2167 293.7774 0001639 103.6468 256.4707 15.08834965 75430,6917.896,95.438,540.895,538.627,0.0
53182.0,STARLINK-4278,PAYLOAD,2023-11-24 21:40:18,15.08836554,0.0001748,53.2165,291.101,117.4119,242.7051,-9.9219e-05,-1.867e-05,0.0,0 STARLINK-4278,1 53182U 22083BC  23328.90298641 -.00001867  00000-0 -99219-4 0  9999,2 53182  53.2165 291.1010 0001748 117.4119 242.7051 15.08836554 75526,6917.891,95.438,540.965,538.547,0.0
53182.0,STARLINK-4278,PAYLOAD,2023-11-25 04:01:50,15.08840446,0.0002111,53.2182,289.9191,75.2914,284.8312,5.2643e-05,5.5e-06,0.0,0 STARLINK-4278,1 53182U 22083BC  23329.16794738  .00000550  00000-0  52643-4 0  9992,2 53182  53.2182 289.9191 0002111  75.2914 284.8312 15.08840446 76207,6917.879,95.438,541.204,538.284,0.0
53182.0,STARLINK-4278,PAYLOAD,2023-11-25 07:12:36,15.08853246,0.0001569,53.2182,289.3151,105.4846,254.632,0.00023057,3.385e-05,0.0,0 STARLINK-4278,1 53182U 22083BC  23329.30041824  .00003385  00000-0  23057-3 0  9994,2 53182  53.2182 289.3151 0001569 105.4846 254.6320 15.08853246 75589,6917.84,95.437,540.79,538.619,0.0
53182.0,STARLINK-4278,PAYLOAD,2023-11-25 21:31:04,15.08846065,0.0001944,53.2161,286.6406,97.0361,263.0853,0.00033836,5.102e-05,0.0,0 STARLINK-4278,1 53182U 22083BC  23329.89658552  .00005102  00000-0  33836-3 0  9995,2 53182  53.2161 286.6406 0001944  97.0361 263.0853 15.08846065 75670,6917.862,95.437,541.072,538.382,0.0
53182.0,STARLINK-4278,PAYLOAD,2023-11-26 07:03:22,15.08870706,0.0001696,53.2162,284.8551,106.453,253.6649,0.00070642,0.00010982,0.0,0 STARLINK-4278,1 53182U 22083BC  23330.29401277  .00010982  00000-0  70642-3 0  9999,2 53182  53.2162 284.8551 0001696 106.4530 253.6649 15.08870706 75733,6917.787,95.436,540.825,538.478,0.0
53182.0,STARLINK-4278,PAYLOAD,2023-11-27 03:43:25,15.0882149,0.0001822,53.2169,280.9903,103.6999,256.4196,-0.00038369,-6.386e-05,0.0,0 STARLINK-4278,1 53182U 22083BC  23331.15515393 -.00006386  00000-0 -38369-3 0  9995,2 53182  53.2169 280.9903 0001822 103.6999 256.4196 15.08821490 76507,6917.937,95.439,541.062,538.542,0.0
53182.0,STARLINK-4278,PAYLOAD,2023-11-27 06:54:11,15.0882218,0.0001838,53.2169,280.3958,103.962,256.1577,-0.00027534,-4.665e-05,0.0,0 STARLINK-4278,1 53182U 22083BC  23331.28763800 -.00004665  00000-0 -27534-3 0  9997,2 53182  53.2169 280.3958 0001838 103.9620 256.1577 15.08822180 75889,6917.935,95.439,541.071,538.528,0.0
53182.0,STARLINK-4278,PAYLOAD,2023-11-28 01:58:47,15.08859762,0.0002003,53.2175,276.8247,122.3934,237.7253,0.00016488,2.338e-05,0.0,0 STARLINK-4278,1 53182U 22083BC  23332.08249701  .00002338  00000-0  16488-3 0  9994,2 53182  53.2175 276.8247 0002003 122.3934 237.7253 15.08859762 76642,6917.82,95.436,541.071,538.299,0.0
53182.0,STARLINK-4278,PAYLOAD,2023-11-28 03:34:10,15.08861031,0.0001829,53.2178,276.528,115.0392,245.079,0.0001938,2.799e-05,0.0,0 STARLINK-4278,1 53182U 22083BC  23332.14873651  .00002799  00000-0  19380-3 0  9993,2 53182  53.2178 276.5280 0001829 115.0392 245.0790 15.08861031 76012,6917.816,95.436,540.946,538.416,0.0
53182.0,STARLINK-4278,PAYLOAD,2023-11-29 01:49:36,15.0883674,0.0001727,53.2181,272.3675,108.5205,251.5975,0.00025594,3.787e-05,0.0,0 STARLINK-4278,1 53182U 22083BC  23333.07611521  .00003787  00000-0  25594-3 0  9994,2 53182  53.2181 272.3675 0001727 108.5205 251.5975 15.08836740 76796,6917.89,95.438,540.95,538.561,0.0
53182.0,STARLINK-4278,PAYLOAD,2023-11-30 03:15:45,15.08851416,0.0001602,53.2176,267.6097,91.5767,268.5408,1.8128e-05,1e-08,0.0,0 STARLINK-4278,1 53182U 22083BC  23334.13594732  .00000001  00000-0  18128-4 0  9998,2 53182  53.2176 267.6097 0001602  91.5767 268.5408 15.08851416 76955,6917.845,95.437,540.819,538.602,0.0
53182.0,STARLINK-4278,PAYLOAD,2023-11-30 04:51:08,15.08856934,0.0001705,53.2179,267.3103,102.6577,257.4606,0.00010707,1.417e-05,0.0,0 STARLINK-4278,1 53182U 22083BC  23334.20218402  .00001417  00000-0  10707-3 0  9999,2 53182  53.2179 267.3103 0001705 102.6577 257.4606 15.08856934 76968,6917.829,95.436,540.873,538.514,0.0
53182.0,STARLINK-4278,PAYLOAD,2023-12-01 03:06:33,15.08837804,0.000163,53.2174,263.1521,80.6687,279.449,0.00010466,1.378e-05,0.0,0 STARLINK-4278,1 53182U 22083BC  23335.12955730  .00001378  00000-0  10466-3 0  9991,2 53182  53.2174 263.1521 0001630  80.6687 279.4490 15.08837804 77102,6917.887,95.438,540.88,538.624,0.0
53182.0,STARLINK-4278,PAYLOAD,2023-12-01 22:11:10,15.08853067,0.0001573,53.2184,259.5786,94.6605,265.4567,0.00021265,3.099e-05,0.0,0 STARLINK-4278,1 53182U 22083BC  23335.92442904  .00003099  00000-0  21265-3 0  9994,2 53182  53.2184 259.5786 0001573  94.6605 265.4567 15.08853067 76586,6917.84,95.437,540.794,538.617,0.0
53182.0,STARLINK-4278,PAYLOAD,2023-12-02 01:21:56,15.08874274,0.0001463,53.217,258.9863,86.6231,273.4929,0.00070823,0.00011012,0.0,0 STARLINK-4278,1 53182U 22083BC  23336.05690038  .00011012  00000-0  70823-3 0  9990,2 53182  53.2170 258.9863 0001463  86.6231 273.4929 15.08874274 77242,6917.776,95.435,540.653,538.629,0.0
53182.0,STARLINK-4278,PAYLOAD,2023-12-02 04:32:41,15.08884776,0.0001519,53.2178,258.3885,97.395,262.7214,0.00088925,0.0001391,0.0,0 STARLINK-4278,1 53182U 22083BC  23336.18937440  .00013910  00000-0  88925-3 0  9996,2 53182  53.2178 258.3885 0001519  97.3950 262.7214 15.08884776 76624,6917.744,95.435,540.659,538.558,0.0
53182.0,STARLINK-4278,PAYLOAD,2023-12-02 22:01:57,15.08833556,0.0001235,53.2179,255.1182,103.0543,257.0587,-0.00017069,-3.003e-05,0.0,0 STARLINK-4278,1 53182U 22083BC  23336.91803115 -.00003003  00000-0 -17069-3 0  9993,2 53182  53.2179 255.1182 0001235 103.0543 257.0587 15.08833556 76730,6917.9,95.438,540.619,538.911,0.0
53182.0,STARLINK-4278,PAYLOAD,2023-12-03 01:12:44,15.08833402,0.0001435,53.2172,254.5257,120.7654,239.348,-0.00017037,-2.998e-05,0.0,0 STARLINK-4278,1 53182U 22083BC  23337.05051088 -.00002998  00000-0 -17037-3 0  9990,2 53182  53.2172 254.5257 0001435 120.7654 239.3480 15.08833402 77398,6917.901,95.438,540.758,538.773,0.0
53182.0,STARLINK-4278,PAYLOAD,2023-12-04 01:03:31,15.08842693,0.0001416,53.2165,250.0686,87.1827,272.9328,-0.00014518,-2.598e-05,0.0,0 STARLINK-4278,1 53182U 22083BC  23338.04411535 -.00002598  00000-0 -14518-3 0  9994,2 53182  53.2165 250.0686 0001416  87.1827 272.9328 15.08842693 77547,6917.872,95.437,540.717,538.758,0.0
53182.0,STARLINK-4278,PAYLOAD,2023-12-04 23:18:55,15.08841385,0.0001567,53.2168,245.9119,114.7758,245.3397,0.00033864,5.106e-05,0.0,0 STARLINK-4278,1 53182U 22083BC  23338.97147852  .00005106  00000-0  33864-3 0  9995,2 53182  53.2168 245.9119 0001567 114.7758 245.3397 15.08841385 77043,6917.876,95.437,540.825,538.657,0.0
53182.0,STARLINK-4278,PAYLOAD,2023-12-05 18:23:33,15.08842932,0.0001176,53.2146,242.3339,94.4518,265.6608,6.994e-05,8.26e-06,0.0,0 STARLINK-4278,1 53182U 22083BC  23339.76635726  .00000826  00000-0  69940-4 0  9994,2 53182  53.2146 242.3339 0001176  94.4518 265.6608 15.08842932 77801,6917.871,95.437,540.55,538.923,0.0
53182.0,STARLINK-4278,PAYLOAD,2023-12-06 03:55:51,15.08844058,0.0001194,53.2147,240.552,93.2107,266.9022,6.4953e-05,7.46e-06,0.0,0 STARLINK-4278,1 53182U 22083BC  23340.16379579  .00000746  00000-0  64953-4 0  9991,2 53182  53.2147 240.5520 0001194  93.2107 266.9022 15.08844058 77226,6917.868,95.437,540.559,538.907,0.0
